[
  {
    "OBJECT_NAME": "STARLINK-11186 [DTC]",
    "OBJECT_ID": "24113M",
    "EPOCH": "2025-11-11T07:14:03.310944",
    "MEAN_MOTION": 15.69716043,
    "ECCENTRICITY": 0.0001112,
    "INCLINATION": 53.158,
    "RA_OF_ASC_NODE": 55.067,
    "ARG_OF_PERICENTER": 116.9944,
    "MEAN_ANOMALY": 243.1188,
    "EPHEMERIS_TYPE": 0,
    "CLASSIFICATION_TYPE": "U",
    "NORAD_CAT_ID": 60070,
    "ELEMENT_SET_NO": 999,
    "REV_AT_EPOCH": 8137,
    "BSTAR": 0.0,
    "MEAN_MOTION_DOT": -6.04e-06,
    "MEAN_MOTION_DDOT": 0.0,
    "TLE_LINE1": "1 60070U 24113M   25315.30142721 -.00000604  00000+0 -13003-6 0  9994",
    "TLE_LINE2": "2 60070  53.1580  55.0670 0001112 116.9944 243.1188 15.69716043 81377",
    "COMMENT": "Grouped by shell and plane from TLE"
  },
  {
    "OBJECT_NAME": "STARLINK-11184 [DTC]",
    "OBJECT_ID": "24113N",
    "EPOCH": "2025-11-11T07:06:59.777280",
    "MEAN_MOTION": 15.69711179,
    "ECCENTRICITY": 8.08e-05,
    "INCLINATION": 53.1612,
    "RA_OF_ASC_NODE": 55.0725,
    "ARG_OF_PERICENTER": 102.3336,
    "MEAN_ANOMALY": 257.7773,
    "EPHEMERIS_TYPE": 0,
    "CLASSIFICATION_TYPE": "U",
    "NORAD_CAT_ID": 60071,
    "ELEMENT_SET_NO": 999,
    "REV_AT_EPOCH": 8096,
    "BSTAR": 5.4721000000000005e-06,
    "MEAN_MOTION_DOT": 7.5e-07,
    "MEAN_MOTION_DDOT": 0.0,
    "TLE_LINE1": "1 60071U 24113N   25315.29652520  .00000075  00000+0  54721-5 0  9997",
    "TLE_LINE2": "2 60071  53.1612  55.0725 0000808 102.3336 257.7773 15.69711179 80960",
    "COMMENT": "Grouped by shell and plane from TLE"
  },
  {
    "OBJECT_NAME": "STARLINK-11496 [DTC]",
    "OBJECT_ID": "24237A",
    "EPOCH": "2025-11-11T06:24:38.148480",
    "MEAN_MOTION": 15.71075371,
    "ECCENTRICITY": 0.0001798,
    "INCLINATION": 42.9985,
    "RA_OF_ASC_NODE": 50.7678,
    "ARG_OF_PERICENTER": 244.0059,
    "MEAN_ANOMALY": 116.0624,
    "EPHEMERIS_TYPE": 0,
    "CLASSIFICATION_TYPE": "U",
    "NORAD_CAT_ID": 62267,
    "ELEMENT_SET_NO": 999,
    "REV_AT_EPOCH": 5442,
    "BSTAR": 0.0036319000000000004,
    "MEAN_MOTION_DOT": 0.00499606,
    "MEAN_MOTION_DDOT": 0.0,
    "TLE_LINE1": "1 62267U 24237A   25315.26710820  .00499606  00000+0  36319-2 0  9990",
    "TLE_LINE2": "2 62267  42.9985  50.7678 0001798 244.0059 116.0624 15.71075371 54426",
    "COMMENT": "Grouped by shell and plane from TLE"
  },
  {
    "OBJECT_NAME": "STARLINK-11501 [DTC]",
    "OBJECT_ID": "24237B",
    "EPOCH": "2025-11-11T07:10:19.394976",
    "MEAN_MOTION": 15.70933964,
    "ECCENTRICITY": 0.000157,
    "INCLINATION": 42.9989,
    "RA_OF_ASC_NODE": 50.1287,
    "ARG_OF_PERICENTER": 246.3912,
    "MEAN_ANOMALY": 113.6791,
    "EPHEMERIS_TYPE": 0,
    "CLASSIFICATION_TYPE": "U",
    "NORAD_CAT_ID": 62268,
    "ELEMENT_SET_NO": 999,
    "REV_AT_EPOCH": 5438,
    "BSTAR": 0.0027800999999999998,
    "MEAN_MOTION_DOT": 0.00374293,
    "MEAN_MOTION_DDOT": 0.0,
    "TLE_LINE1": "1 62268U 24237B   25315.29883559  .00374293  00000+0  27801-2 0  9994",
    "TLE_LINE2": "2 62268  42.9989  50.1287 0001570 246.3912 113.6791 15.70933964 54385",
    "COMMENT": "Grouped by shell and plane from TLE"
  },
  {
    "OBJECT_NAME": "STARLINK-11491 [DTC]",
    "OBJECT_ID": "24237C",
    "EPOCH": "2025-11-11T07:02:40.610112",
    "MEAN_MOTION": 15.70878424,
    "ECCENTRICITY": 0.0001735,
    "INCLINATION": 42.9997,
    "RA_OF_ASC_NODE": 50.0857,
    "ARG_OF_PERICENTER": 275.5138,
    "MEAN_ANOMALY": 84.5532,
    "EPHEMERIS_TYPE": 0,
    "CLASSIFICATION_TYPE": "U",
    "NORAD_CAT_ID": 62269,
    "ELEMENT_SET_NO": 999,
    "REV_AT_EPOCH": 5443,
    "BSTAR": 0.0023361000000000002,
    "MEAN_MOTION_DOT": 0.00311315,
    "MEAN_MOTION_DDOT": 0.0,
    "TLE_LINE1": "1 62269U 24237C   25315.29352558  .00311315  00000+0  23361-2 0  9998",
    "TLE_LINE2": "2 62269  42.9997  50.0857 0001735 275.5138  84.5532 15.70878424 54438",
    "COMMENT": "Grouped by shell and plane from TLE"
  },
  {
    "OBJECT_NAME": "STARLINK-11479 [DTC]",
    "OBJECT_ID": "24237D",
    "EPOCH": "2025-11-11T07:25:36.674400",
    "MEAN_MOTION": 15.70987543,
    "ECCENTRICITY": 0.0001329,
    "INCLINATION": 42.9985,
    "RA_OF_ASC_NODE": 50.2122,
    "ARG_OF_PERICENTER": 245.1226,
    "MEAN_ANOMALY": 114.9504,
    "EPHEMERIS_TYPE": 0,
    "CLASSIFICATION_TYPE": "U",
    "NORAD_CAT_ID": 62270,
    "ELEMENT_SET_NO": 999,
    "REV_AT_EPOCH": 5443,
    "BSTAR": 0.0021276999999999997,
    "MEAN_MOTION_DOT": 0.00283857,
    "MEAN_MOTION_DDOT": 0.0,
    "TLE_LINE1": "1 62270U 24237D   25315.30945225  .00283857  00000+0  21277-2 0  9994",
    "TLE_LINE2": "2 62270  42.9985  50.2122 0001329 245.1226 114.9504 15.70987543 54434",
    "COMMENT": "Grouped by shell and plane from TLE"
  },
  {
    "OBJECT_NAME": "STARLINK-11489 [DTC]",
    "OBJECT_ID": "24237E",
    "EPOCH": "2025-11-11T06:47:34.338912",
    "MEAN_MOTION": 15.71132152,
    "ECCENTRICITY": 0.0002385,
    "INCLINATION": 42.9984,
    "RA_OF_ASC_NODE": 50.8954,
    "ARG_OF_PERICENTER": 246.8605,
    "MEAN_ANOMALY": 113.2011,
    "EPHEMERIS_TYPE": 0,
    "CLASSIFICATION_TYPE": "U",
    "NORAD_CAT_ID": 62271,
    "ELEMENT_SET_NO": 999,
    "REV_AT_EPOCH": 5442,
    "BSTAR": 0.0038733,
    "MEAN_MOTION_DOT": 0.00536518,
    "MEAN_MOTION_DDOT": 0.0,
    "TLE_LINE1": "1 62271U 24237E   25315.28303633  .00536518  00000+0  38733-2 0  9993",
    "TLE_LINE2": "2 62271  42.9984  50.8954 0002385 246.8605 113.2011 15.71132152 54428",
    "COMMENT": "Grouped by shell and plane from TLE"
  },
  {
    "OBJECT_NAME": "STARLINK-11494 [DTC]",
    "OBJECT_ID": "24237F",
    "EPOCH": "2025-11-11T06:16:59.392128",
    "MEAN_MOTION": 15.71101193,
    "ECCENTRICITY": 0.00021,
    "INCLINATION": 42.9992,
    "RA_OF_ASC_NODE": 50.7237,
    "ARG_OF_PERICENTER": 219.1648,
    "MEAN_ANOMALY": 140.9068,
    "EPHEMERIS_TYPE": 0,
    "CLASSIFICATION_TYPE": "U",
    "NORAD_CAT_ID": 62272,
    "ELEMENT_SET_NO": 999,
    "REV_AT_EPOCH": 5437,
    "BSTAR": 0.0037816,
    "MEAN_MOTION_DOT": 0.00522218,
    "MEAN_MOTION_DDOT": 0.0,
    "TLE_LINE1": "1 62272U 24237F   25315.26179852  .00522218  00000+0  37816-2 0  9999",
    "TLE_LINE2": "2 62272  42.9992  50.7237 0002100 219.1648 140.9068 15.71101193 54370",
    "COMMENT": "Grouped by shell and plane from TLE"
  },
  {
    "OBJECT_NAME": "STARLINK-11333 [DTC]",
    "OBJECT_ID": "24237G",
    "EPOCH": "2025-11-11T06:32:16.811520",
    "MEAN_MOTION": 15.71110192,
    "ECCENTRICITY": 0.0002643,
    "INCLINATION": 42.9979,
    "RA_OF_ASC_NODE": 50.8063,
    "ARG_OF_PERICENTER": 248.8709,
    "MEAN_ANOMALY": 111.1876,
    "EPHEMERIS_TYPE": 0,
    "CLASSIFICATION_TYPE": "U",
    "NORAD_CAT_ID": 62273,
    "ELEMENT_SET_NO": 999,
    "REV_AT_EPOCH": 5442,
    "BSTAR": 0.0036209000000000002,
    "MEAN_MOTION_DOT": 0.00498757,
    "MEAN_MOTION_DDOT": 0.0,
    "TLE_LINE1": "1 62273U 24237G   25315.27241680  .00498757  00000+0  36209-2 0  9995",
    "TLE_LINE2": "2 62273  42.9979  50.8063 0002643 248.8709 111.1876 15.71110192 54425",
    "COMMENT": "Grouped by shell and plane from TLE"
  },
  {
    "OBJECT_NAME": "STARLINK-11504 [DTC]",
    "OBJECT_ID": "24237H",
    "EPOCH": "2025-11-11T07:40:54.252768",
    "MEAN_MOTION": 15.71082184,
    "ECCENTRICITY": 0.0002082,
    "INCLINATION": 42.9989,
    "RA_OF_ASC_NODE": 50.2958,
    "ARG_OF_PERICENTER": 234.7998,
    "MEAN_ANOMALY": 125.2675,
    "EPHEMERIS_TYPE": 0,
    "CLASSIFICATION_TYPE": "U",
    "NORAD_CAT_ID": 62274,
    "ELEMENT_SET_NO": 999,
    "REV_AT_EPOCH": 5438,
    "BSTAR": 0.0031699,
    "MEAN_MOTION_DOT": 0.00432564,
    "MEAN_MOTION_DDOT": 0.0,
    "TLE_LINE1": "1 62274U 24237H   25315.32007237  .00432564  00000+0  31699-2 0  9992",
    "TLE_LINE2": "2 62274  42.9989  50.2958 0002082 234.7998 125.2675 15.71082184 54382",
    "COMMENT": "Grouped by shell and plane from TLE"
  },
  {
    "OBJECT_NAME": "STARLINK-11495 [DTC]",
    "OBJECT_ID": "24237J",
    "EPOCH": "2025-11-11T06:55:12.845568",
    "MEAN_MOTION": 15.70936519,
    "ECCENTRICITY": 0.0001669,
    "INCLINATION": 43.0003,
    "RA_OF_ASC_NODE": 50.9364,
    "ARG_OF_PERICENTER": 249.6332,
    "MEAN_ANOMALY": 110.4356,
    "EPHEMERIS_TYPE": 0,
    "CLASSIFICATION_TYPE": "U",
    "NORAD_CAT_ID": 62275,
    "ELEMENT_SET_NO": 999,
    "REV_AT_EPOCH": 5437,
    "BSTAR": 0.0023828,
    "MEAN_MOTION_DOT": 0.00318599,
    "MEAN_MOTION_DDOT": 0.0,
    "TLE_LINE1": "1 62275U 24237J   25315.28834312  .00318599  00000+0  23828-2 0  9996",
    "TLE_LINE2": "2 62275  43.0003  50.9364 0001669 249.6332 110.4356 15.70936519 54377",
    "COMMENT": "Grouped by shell and plane from TLE"
  },
  {
    "OBJECT_NAME": "STARLINK-11498 [DTC]",
    "OBJECT_ID": "24237K",
    "EPOCH": "2025-11-11T07:17:57.987168",
    "MEAN_MOTION": 15.71020466,
    "ECCENTRICITY": 0.0001475,
    "INCLINATION": 43.0,
    "RA_OF_ASC_NODE": 50.1673,
    "ARG_OF_PERICENTER": 257.3142,
    "MEAN_ANOMALY": 102.7561,
    "EPHEMERIS_TYPE": 0,
    "CLASSIFICATION_TYPE": "U",
    "NORAD_CAT_ID": 62276,
    "ELEMENT_SET_NO": 999,
    "REV_AT_EPOCH": 5443,
    "BSTAR": 0.0020646,
    "MEAN_MOTION_DOT": 0.00275525,
    "MEAN_MOTION_DDOT": 0.0,
    "TLE_LINE1": "1 62276U 24237K   25315.30414337  .00275525  00000+0  20646-2 0  9997",
    "TLE_LINE2": "2 62276  43.0000  50.1673 0001475 257.3142 102.7561 15.71020466 54435",
    "COMMENT": "Grouped by shell and plane from TLE"
  }
]